[{"OBJECT_NAME":"STARLINK-5694","OBJECT_ID":"2023-015AJ","EPOCH":"2026-03-09T22:00:01.999584","MEAN_MOTION":15.13782527,"ECCENTRICITY":0.0001792,"INCLINATION":42.9997,"RA_OF_ASC_NODE":337.4437,"ARG_OF_PERICENTER":242.0585,"MEAN_ANOMALY":51.248,"EPHEMERIS_TYPE":0,"CLASSIFICATION_TYPE":"U","NORAD_CAT_ID":55481,"ELEMENT_SET_NO":999,"REV_AT_EPOCH":573,"BSTAR":0.0026769455,"MEAN_MOTION_DOT":0.00049282,"MEAN_MOTION_DDOT":0},{"OBJECT_NAME":"STRIX-3","OBJECT_ID":"2024-047A","EPOCH":"2026-03-09T22:36:43.864704","MEAN_MOTION":15.17646985,"ECCENTRICITY":0.00153398,"INCLINATION":97.656,"RA_OF_ASC_NODE":43.3231,"ARG_OF_PERICENTER":51.5909,"MEAN_ANOMALY":308.6699,"EPHEMERIS_TYPE":0,"CLASSIFICATION_TYPE":"U","NORAD_CAT_ID":59224,"ELEMENT_SET_NO":999,"REV_AT_EPOCH":10968,"BSTAR":0.00061996741,"MEAN_MOTION_DOT":0.00012457,"MEAN_MOTION_DDOT":0}]
